[{"OBJECT_NAME":"STARLINK-36813","OBJECT_ID":"2026-035P","EPOCH":"2026-03-02T20:00:01.999008","MEAN_MOTION":16.03685411,"ECCENTRICITY":0.0001091,"INCLINATION":97.2754,"RA_OF_ASC_NODE":353.6403,"ARG_OF_PERICENTER":90.4024,"MEAN_ANOMALY":48.8999,"EPHEMERIS_TYPE":0,"CLASSIFICATION_TYPE":"U","NORAD_CAT_ID":67892,"ELEMENT_SET_NO":999,"REV_AT_EPOCH":265,"BSTAR":-0.0015007,"MEAN_MOTION_DOT":-0.00938801,"MEAN_MOTION_DDOT":0.00030427},{"OBJECT_NAME":"STARLINK-36803","OBJECT_ID":"2026-035Q","EPOCH":"2026-03-02T20:00:01.999008","MEAN_MOTION":16.02850114,"ECCENTRICITY":0.0001061,"INCLINATION":97.2772,"RA_OF_ASC_NODE":353.6323,"ARG_OF_PERICENTER":95.6749,"MEAN_ANOMALY":22.3272,"EPHEMERIS_TYPE":0,"CLASSIFICATION_TYPE":"U","NORAD_CAT_ID":67893,"ELEMENT_SET_NO":999,"REV_AT_EPOCH":265,"BSTAR":-0.0014281,"MEAN_MOTION_DOT":-0.00851074,"MEAN_MOTION_DDOT":0.00025115},{"OBJECT_NAME":"STARLINK-36846","OBJECT_ID":"2026-035R","EPOCH":"2026-03-02T20:00:01.999008","MEAN_MOTION":16.03140183,"ECCENTRICITY":0.0001117,"INCLINATION":97.2769,"RA_OF_ASC_NODE":353.6355,"ARG_OF_PERICENTER":99.3451,"MEAN_ANOMALY":26.4032,"EPHEMERIS_TYPE":0,"CLASSIFICATION_TYPE":"U","NORAD_CAT_ID":67894,"ELEMENT_SET_NO":999,"REV_AT_EPOCH":265,"BSTAR":-0.0014189,"MEAN_MOTION_DOT":-0.00860093,"MEAN_MOTION_DDOT":0.00025699},{"OBJECT_NAME":"STARLINK-36866","OBJECT_ID":"2026-035S","EPOCH":"2026-03-02T20:00:01.999008","MEAN_MOTION":16.03268652,"ECCENTRICITY":0.0001097,"INCLINATION":97.2767,"RA_OF_ASC_NODE":353.6368,"ARG_OF_PERICENTER":79.6013,"MEAN_ANOMALY":49.508,"EPHEMERIS_TYPE":0,"CLASSIFICATION_TYPE":"U","NORAD_CAT_ID":67895,"ELEMENT_SET_NO":999,"REV_AT_EPOCH":265,"BSTAR":-0.0014085,"MEAN_MOTION_DOT":-0.00860254,"MEAN_MOTION_DDOT":0.00025748},{"OBJECT_NAME":"STARLINK-36877","OBJECT_ID":"2026-035T","EPOCH":"2026-03-02T20:00:01.999008","MEAN_MOTION":16.02998982,"ECCENTRICITY":0.0001075,"INCLINATION":97.2768,"RA_OF_ASC_NODE":353.6337,"ARG_OF_PERICENTER":76.7637,"MEAN_ANOMALY":45.2741,"EPHEMERIS_TYPE":0,"CLASSIFICATION_TYPE":"U","NORAD_CAT_ID":67896,"ELEMENT_SET_NO":999,"REV_AT_EPOCH":265,"BSTAR":-0.0014162,"MEAN_MOTION_DOT":-0.00851419,"MEAN_MOTION_DDOT":0.00025178},{"OBJECT_NAME":"STARLINK-36870","OBJECT_ID":"2026-035U","EPOCH":"2026-03-02T20:00:01.999008","MEAN_MOTION":16.03424316,"ECCENTRICITY":0.0001033,"INCLINATION":97.2762,"RA_OF_ASC_NODE":353.6382,"ARG_OF_PERICENTER":97.0541,"MEAN_ANOMALY":35.9167,"EPHEMERIS_TYPE":0,"CLASSIFICATION_TYPE":"U","NORAD_CAT_ID":67897,"ELEMENT_SET_NO":999,"REV_AT_EPOCH":265,"BSTAR":-0.0014076,"MEAN_MOTION_DOT":-0.00867616,"MEAN_MOTION_DDOT":0.00026206},{"OBJECT_NAME":"STARLINK-36810","OBJECT_ID":"2026-035V","EPOCH":"2026-03-02T20:00:01.999008","MEAN_MOTION":16.0354454,"ECCENTRICITY":9.73e-5,"INCLINATION":97.2762,"RA_OF_ASC_NODE":353.6395,"ARG_OF_PERICENTER":94.6745,"MEAN_ANOMALY":41.346,"EPHEMERIS_TYPE":0,"CLASSIFICATION_TYPE":"U","NORAD_CAT_ID":67898,"ELEMENT_SET_NO":999,"REV_AT_EPOCH":265,"BSTAR":-0.0013976,"MEAN_MOTION_DOT":-0.00867565,"MEAN_MOTION_DDOT":0.00026241},{"OBJECT_NAME":"STARLINK-36878","OBJECT_ID":"2026-035W","EPOCH":"2026-03-02T20:00:01.999008","MEAN_MOTION":16.03802809,"ECCENTRICITY":0.0001107,"INCLINATION":97.2759,"RA_OF_ASC_NODE":353.6421,"ARG_OF_PERICENTER":99.4323,"MEAN_ANOMALY":42.6329,"EPHEMERIS_TYPE":0,"CLASSIFICATION_TYPE":"U","NORAD_CAT_ID":67899,"ELEMENT_SET_NO":999,"REV_AT_EPOCH":265,"BSTAR":-0.0015399,"MEAN_MOTION_DOT":-0.00969852,"MEAN_MOTION_DDOT":0.00032362},{"OBJECT_NAME":"STARLINK-36361","OBJECT_ID":"2026-035X","EPOCH":"2026-03-02T20:00:01.999008","MEAN_MOTION":16.03946897,"ECCENTRICITY":0.0001055,"INCLINATION":97.2759,"RA_OF_ASC_NODE":353.6435,"ARG_OF_PERICENTER":101.6238,"MEAN_ANOMALY":43.7549,"EPHEMERIS_TYPE":0,"CLASSIFICATION_TYPE":"U","NORAD_CAT_ID":67900,"ELEMENT_SET_NO":999,"REV_AT_EPOCH":265,"BSTAR":-0.0015551,"MEAN_MOTION_DOT":-0.0098765,"MEAN_MOTION_DDOT":0.00033528},{"OBJECT_NAME":"STARLINK-36336","OBJECT_ID":"2026-035Y","EPOCH":"2026-03-02T20:00:01.999008","MEAN_MOTION":16.04300643,"ECCENTRICITY":0.0001001,"INCLINATION":97.276,"RA_OF_ASC_NODE":353.6481,"ARG_OF_PERICENTER":99.6584,"MEAN_ANOMALY":55.7901,"EPHEMERIS_TYPE":0,"CLASSIFICATION_TYPE":"U","NORAD_CAT_ID":67901,"ELEMENT_SET_NO":999,"REV_AT_EPOCH":270,"BSTAR":-0.001599,"MEAN_MOTION_DOT":-0.01036765,"MEAN_MOTION_DDOT":0.00036834},{"OBJECT_NAME":"STARLINK-36876","OBJECT_ID":"2026-035Z","EPOCH":"2026-03-02T20:00:01.999008","MEAN_MOTION":16.0405209,"ECCENTRICITY":0.0001086,"INCLINATION":97.2763,"RA_OF_ASC_NODE":353.6455,"ARG_OF_PERICENTER":90.3292,"MEAN_ANOMALY":57.9416,"EPHEMERIS_TYPE":0,"CLASSIFICATION_TYPE":"U","NORAD_CAT_ID":67902,"ELEMENT_SET_NO":999,"REV_AT_EPOCH":265,"BSTAR":-0.0016175,"MEAN_MOTION_DOT":-0.01033366,"MEAN_MOTION_DDOT":0.00036502},{"OBJECT_NAME":"STARLINK-36257","OBJECT_ID":"2026-035AA","EPOCH":"2026-03-02T20:00:01.999008","MEAN_MOTION":16.04160948,"ECCENTRICITY":0.0001037,"INCLINATION":97.2759,"RA_OF_ASC_NODE":353.6459,"ARG_OF_PERICENTER":86.578,"MEAN_ANOMALY":64.7354,"EPHEMERIS_TYPE":0,"CLASSIFICATION_TYPE":"U","NORAD_CAT_ID":67903,"ELEMENT_SET_NO":999,"REV_AT_EPOCH":270,"BSTAR":-0.0016235,"MEAN_MOTION_DOT":-0.01043828,"MEAN_MOTION_DDOT":0.00037237},{"OBJECT_NAME":"STARLINK-36814","OBJECT_ID":"2026-036A","EPOCH":"2026-03-02T20:00:01.999008","MEAN_MOTION":15.8483494,"ECCENTRICITY":0.0001879,"INCLINATION":42.995,"RA_OF_ASC_NODE":291.8429,"ARG_OF_PERICENTER":273.4483,"MEAN_ANOMALY":99.7648,"EPHEMERIS_TYPE":0,"CLASSIFICATION_TYPE":"U","NORAD_CAT_ID":67904,"ELEMENT_SET_NO":999,"REV_AT_EPOCH":254,"BSTAR":-0.0075796,"MEAN_MOTION_DOT":-0.01598779,"MEAN_MOTION_DDOT":0},{"OBJECT_NAME":"STARLINK-36729","OBJECT_ID":"2026-036B","EPOCH":"2026-03-02T20:00:01.999008","MEAN_MOTION":15.85045888,"ECCENTRICITY":0.0001854,"INCLINATION":42.9946,"RA_OF_ASC_NODE":291.8334,"ARG_OF_PERICENTER":274.9459,"MEAN_ANOMALY":101.8425,"EPHEMERIS_TYPE":0,"CLASSIFICATION_TYPE":"U","NORAD_CAT_ID":67905,"ELEMENT_SET_NO":999,"REV_AT_EPOCH":254,"BSTAR":-0.0073633,"MEAN_MOTION_DOT":-0.01572897,"MEAN_MOTION_DDOT":0},{"OBJECT_NAME":"STARLINK-36763","OBJECT_ID":"2026-036C","EPOCH":"2026-03-02T20:00:01.999008","MEAN_MOTION":15.8524294,"ECCENTRICITY":0.0001823,"INCLINATION":42.9946,"RA_OF_ASC_NODE":291.8243,"ARG_OF_PERICENTER":276.0548,"MEAN_ANOMALY":104.3578,"EPHEMERIS_TYPE":0,"CLASSIFICATION_TYPE":"U","NORAD_CAT_ID":67906,"ELEMENT_SET_NO":999,"REV_AT_EPOCH":254,"BSTAR":-0.0072747,"MEAN_MOTION_DOT":-0.01569479,"MEAN_MOTION_DDOT":0},{"OBJECT_NAME":"STARLINK-36742","OBJECT_ID":"2026-036D","EPOCH":"2026-03-02T20:00:01.999008","MEAN_MOTION":15.85454153,"ECCENTRICITY":0.0001947,"INCLINATION":42.9947,"RA_OF_ASC_NODE":291.8155,"ARG_OF_PERICENTER":271.8247,"MEAN_ANOMALY":112.0907,"EPHEMERIS_TYPE":0,"CLASSIFICATION_TYPE":"U","NORAD_CAT_ID":67907,"ELEMENT_SET_NO":999,"REV_AT_EPOCH":254,"BSTAR":-0.0071695,"MEAN_MOTION_DOT":-0.01563802,"MEAN_MOTION_DDOT":0}]
